NORAD_CAT_ID,OBJECT_NAME,OBJECT_TYPE,EPOCH,MEAN_MOTION,ECCENTRICITY,INCLINATION,RA_OF_ASC_NODE,ARG_OF_PERICENTER,MEAN_ANOMALY,BSTAR,MEAN_MOTION_DOT,MEAN_MOTION_DDOT,TLE_LINE0,TLE_LINE1,TLE_LINE2,SEMIMAJOR_AXIS,PERIOD,APOGEE,PERIGEE,DECAYED
55781.0,STARLINK-5820,PAYLOAD,2024-03-07 07:06:10,14.98334773,0.0002965,69.9975,271.2648,260.1974,99.8851,-9.4416e-05,-1.22e-05,0.0,0 STARLINK-5820,1 55781U 23028AS  24067.29595168 -.00001220  00000-0 -94416-4 0  9990,2 55781  69.9975 271.2648 0002965 260.1974  99.8851 14.98334773 56824,6950.178,96.107,574.104,569.982,0.0
55781.0,STARLINK-5820,PAYLOAD,2024-03-08 07:08:11,14.98336461,0.0003116,69.9975,268.7403,271.9334,88.1468,-4.2699e-05,-6.03e-06,0.0,0 STARLINK-5820,1 55781U 23028AS  24068.29735077 -.00000603  00000-0 -42699-4 0  9996,2 55781  69.9975 268.7403 0003116 271.9334  88.1468 14.98336461 56970,6950.173,96.107,574.204,569.872,0.0
55781.0,STARLINK-5820,PAYLOAD,2024-03-08 13:32:43,14.98330666,0.0002986,69.9974,268.0671,267.5798,92.5019,3.1445e-05,2.82e-06,0.0,0 STARLINK-5820,1 55781U 23028AS  24068.56439294  .00000282  00000-0  31445-4 0  9996,2 55781  69.9974 268.0671 0002986 267.5798  92.5019 14.98330666 57016,6950.191,96.107,574.131,569.981,0.0
55781.0,STARLINK-5820,PAYLOAD,2024-03-08 19:57:15,14.98331604,0.0002934,69.9977,267.3939,268.1832,91.899,2.653e-05,2.24e-06,0.0,0 STARLINK-5820,1 55781U 23028AS  24068.83143238  .00000224  00000-0  26530-4 0  9991,2 55781  69.9977 267.3939 0002934 268.1832  91.8990 14.98331604 57054,6950.188,96.107,574.092,570.014,0.0
55781.0,STARLINK-5820,PAYLOAD,2024-03-09 19:59:16,14.98332802,0.0002971,69.9977,264.8687,270.4431,89.6388,9.6482e-07,-8.2e-07,0.0,0 STARLINK-5820,1 55781U 23028AS  24069.83283030 -.00000082  00000-0  96482-6 0  9995,2 55781  69.9977 264.8687 0002971 270.4431  89.6388 14.98332802 57202,6950.184,96.107,574.114,569.984,0.0
55781.0,STARLINK-5820,PAYLOAD,2024-03-09 23:11:32,14.98332633,0.0002981,69.9976,264.5321,270.5256,89.5562,-2.0187e-06,-1.17e-06,0.0,0 STARLINK-5820,1 55781U 23028AS  24069.96635021 -.00000117  00000-0 -20187-5 0  9998,2 55781  69.9976 264.5321 0002981 270.5256  89.5562 14.98332633 57227,6950.185,96.107,574.122,569.978,0.0
55781.0,STARLINK-5820,PAYLOAD,2024-03-10 20:01:17,14.98331831,0.0003225,69.9999,262.3443,271.8318,88.2472,4.3022e-06,-4.2e-07,0.0,0 STARLINK-5820,1 55781U 23028AS  24070.83422888 -.00000042  00000-0  43022-5 0  9990,2 55781  69.9999 262.3443 0003225 271.8318  88.2472 14.98331831 57357,6950.187,96.107,574.294,569.811,0.0
55781.0,STARLINK-5820,PAYLOAD,2024-03-10 21:37:25,14.98331295,0.0002939,69.9997,262.1758,271.7265,88.3557,-1.2752e-06,-1.08e-06,0.0,0 STARLINK-5820,1 55781U 23028AS  24070.90098951 -.00000108  00000-0 -12752-5 0  9998,2 55781  69.9997 262.1758 0002939 271.7265  88.3557 14.98331295 57363,6950.189,96.107,574.097,570.011,0.0
55781.0,STARLINK-5820,PAYLOAD,2024-03-11 05:38:05,14.98348057,0.0003571,69.9995,261.3337,272.3363,87.7387,-0.0002841,-3.483e-05,0.0,0 STARLINK-5820,1 55781U 23028AS  24071.23478428 -.00003483  00000-0 -28410-3 0  9991,2 55781  69.9995 261.3337 0003571 272.3363  87.7387 14.98348057 57418,6950.137,96.106,574.484,569.52,0.0
55781.0,STARLINK-5820,PAYLOAD,2024-03-12 12:04:38,14.98330109,0.0002962,69.9997,258.1352,266.2003,93.8817,-4.4223e-06,-1.46e-06,0.0,0 STARLINK-5820,1 55781U 23028AS  24072.50322826 -.00000146  00000-0 -44223-5 0  9997,2 55781  69.9997 258.1352 0002962 266.2003  93.8817 14.98330109 57603,6950.193,96.107,574.116,569.999,0.0
55781.0,STARLINK-5820,PAYLOAD,2024-03-13 12:06:39,14.98328358,0.0003056,69.9973,255.6098,268.0039,92.077,1.1716e-06,-7.9e-07,0.0,0 STARLINK-5820,1 55781U 23028AS  24073.50462913 -.00000079  00000-0  11716-5 0  9995,2 55781  69.9973 255.6098 0003056 268.0039  92.0770 14.98328358 57758,6950.198,96.107,574.187,569.939,0.0
55781.0,STARLINK-5820,PAYLOAD,2024-03-13 21:43:28,14.98329075,0.000304,69.9973,254.5997,267.9883,92.0928,1.0535e-05,3.3e-07,0.0,0 STARLINK-5820,1 55781U 23028AS  24073.90518861  .00000033  00000-0  10535-4 0  9999,2 55781  69.9973 254.5997 0003040 267.9883  92.0928 14.98329075 57811,6950.196,96.107,574.174,569.948,0.0
55781.0,STARLINK-5820,PAYLOAD,2024-03-14 05:44:08,14.9832929,0.0003051,69.9991,253.7587,269.2052,90.8758,2.103e-05,1.58e-06,0.0,0 STARLINK-5820,1 55781U 23028AS  24074.23898839  .00000158  00000-0  21030-4 0  9992,2 55781  69.9991 253.7587 0003051 269.2052  90.8758 14.98329290 57863,6950.195,96.107,574.181,569.94,0.0
55781.0,STARLINK-5820,PAYLOAD,2024-03-14 12:08:40,14.9833029,0.0003059,69.9985,253.0852,268.8596,91.2212,3.0623e-05,2.72e-06,0.0,0 STARLINK-5820,1 55781U 23028AS  24074.50602728  .00000272  00000-0  30623-4 0  9997,2 55781  69.9985 253.0852 0003059 268.8596  91.2212 14.98330290 57907,6950.192,96.107,574.183,569.931,0.0
55781.0,STARLINK-5820,PAYLOAD,2024-03-14 21:45:29,14.98331737,0.0003071,69.9997,252.0753,268.9937,91.087,4.0628e-05,3.92e-06,0.0,0 STARLINK-5820,1 55781U 23028AS  24074.90658592  .00000392  00000-0  40628-4 0  9990,2 55781  69.9997 252.0753 0003071 268.9937  91.0870 14.98331737 57964,6950.188,96.107,574.187,569.918,0.0
55781.0,STARLINK-5820,PAYLOAD,2024-03-15 12:10:41,14.98331179,0.0003049,69.9998,250.5604,269.1709,90.91,3.21e-05,2.9e-06,0.0,0 STARLINK-5820,1 55781U 23028AS  24075.50742598  .00000290  00000-0  32100-4 0  9990,2 55781  69.9998 250.5604 0003049 269.1709  90.9100 14.98331179 58053,6950.189,96.107,574.173,569.935,0.0
55781.0,STARLINK-5820,PAYLOAD,2024-03-15 21:47:29,14.98332244,0.0003058,69.9998,249.5505,269.3793,90.7016,3.1364e-05,2.81e-06,0.0,0 STARLINK-5820,1 55781U 23028AS  24075.90798483  .00000281  00000-0  31364-4 0  9999,2 55781  69.9998 249.5505 0003058 269.3793  90.7016 14.98332244 58111,6950.186,96.107,574.176,569.926,0.0
55781.0,STARLINK-5820,PAYLOAD,2024-03-16 12:12:42,14.98330939,0.0003005,69.9999,248.0358,269.7846,90.2968,-1.7475e-05,-3.02e-06,0.0,0 STARLINK-5820,1 55781U 23028AS  24076.50882664 -.00000302  00000-0 -17475-4 0  9994,2 55781  69.9999 248.0358 0003005 269.7846  90.2968 14.98330939 58207,6950.19,96.107,574.144,569.966,0.0
55781.0,STARLINK-5820,PAYLOAD,2024-03-16 13:48:50,14.98330733,0.0003008,69.9998,247.8675,269.9499,90.1315,-1.8403e-05,-3.13e-06,0.0,0 STARLINK-5820,1 55781U 23028AS  24076.57558673 -.00000313  00000-0 -18403-4 0  9995,2 55781  69.9998 247.8675 0003008 269.9499  90.1315 14.98330733 58212,6950.191,96.107,574.146,569.965,0.0
55781.0,STARLINK-5820,PAYLOAD,2024-03-16 21:49:31,14.98329918,0.0002966,69.9998,247.026,268.5373,91.5447,-1.0562e-05,-2.19e-06,0.0,0 STARLINK-5820,1 55781U 23028AS  24076.90938685 -.00000219  00000-0 -10562-4 0  9990,2 55781  69.9998 247.0260 0002966 268.5373  91.5447 14.98329918 58261,6950.193,96.107,574.12,569.997,0.0
55781.0,STARLINK-5820,PAYLOAD,2024-03-17 12:14:43,14.98329873,0.000302,69.9995,245.5107,266.5978,93.4835,-2.3803e-05,-3.77e-06,0.0,0 STARLINK-5820,1 55781U 23028AS  24077.51022667 -.00000377  00000-0 -23803-4 0  9999,2 55781  69.9995 245.5107 0003020 266.5978  93.4835 14.98329873 58354,6950.193,96.107,574.157,569.959,0.0
55781.0,STARLINK-5820,PAYLOAD,2024-03-17 13:50:51,14.98330064,0.0003024,69.9995,245.3424,266.6193,93.462,-2.134e-05,-3.48e-06,0.0,0 STARLINK-5820,1 55781U 23028AS  24077.57698645 -.00000348  00000-0 -21340-4 0  9992,2 55781  69.9995 245.3424 0003024 266.6193  93.4620 14.98330064 58365,6950.193,96.107,574.159,569.956,0.0
55781.0,STARLINK-5820,PAYLOAD,2024-03-17 20:15:23,14.9833149,0.0003019,69.9996,244.6691,266.8974,93.184,-2.5663e-06,-1.24e-06,0.0,0 STARLINK-5820,1 55781U 23028AS  24077.84402498 -.00000124  00000-0 -25663-5 0  9996,2 55781  69.9996 244.6691 0003019 266.8974  93.1840 14.98331490 58407,6950.188,96.107,574.152,569.955,0.0
55781.0,STARLINK-5820,PAYLOAD,2024-03-18 12:16:44,14.98329475,0.0003039,69.9997,242.9859,266.9739,93.1073,1.0107e-05,2.8e-07,0.0,0 STARLINK-5820,1 55781U 23028AS  24078.51162571  .00000028  00000-0  10107-4 0  9993,2 55781  69.9997 242.9859 0003039 266.9739  93.1073 14.98329475 58506,6950.195,96.107,574.172,569.947,0.0
55781.0,STARLINK-5820,PAYLOAD,2024-03-18 20:17:24,14.98331353,0.0003025,69.9998,242.1443,266.7945,93.2868,3.0528e-05,2.71e-06,0.0,0 STARLINK-5820,1 55781U 23028AS  24078.84542384  .00000271  00000-0  30528-4 0  9992,2 55781  69.9998 242.1443 0003025 266.7945  93.2868 14.98331353 58556,6950.189,96.107,574.156,569.951,0.0
55781.0,STARLINK-5820,PAYLOAD,2024-03-19 12:18:45,14.98331022,0.000301,69.9999,240.4606,266.6413,93.4402,2.3998e-05,1.93e-06,0.0,0 STARLINK-5820,1 55781U 23028AS  24079.51302398  .00000193  00000-0  23998-4 0  9992,2 55781  69.9999 240.4606 0003010 266.6413  93.4402 14.98331022 58652,6950.19,96.107,574.147,569.963,0.0
55781.0,STARLINK-5820,PAYLOAD,2024-03-19 20:19:25,14.98335622,0.0002982,69.9999,239.619,266.9125,93.1693,7.0472e-05,7.48e-06,0.0,0 STARLINK-5820,1 55781U 23028AS  24079.84681910  .00000748  00000-0  70472-4 0  9993,2 55781  69.9999 239.6190 0002982 266.9125  93.1693 14.98335622 58705,6950.176,96.107,574.113,569.968,0.0
55781.0,STARLINK-5820,PAYLOAD,2024-03-20 10:44:32,14.98382949,0.0002828,69.9999,238.1031,275.8787,84.205,0.00052252,6.156e-05,0.0,0 STARLINK-5820,1 55781U 23028AS  24080.44760380  .00006156  00000-0  52252-3 0  9994,2 55781  69.9999 238.1031 0002828 275.8787  84.2050 14.98382949 58796,6950.029,96.104,573.86,569.929,0.0
55781.0,STARLINK-5820,PAYLOAD,2024-03-20 13:56:37,14.98522991,0.0002853,70.0004,237.7676,267.7625,92.3208,0.0020223,0.00024241,0.0,0 STARLINK-5820,1 55781U 23028AS  24080.58099213  .00024241  00000-0  20223-2 0  9996,2 55781  70.0004 237.7676 0002853 267.7625  92.3208 14.98522991 58816,6949.596,96.095,573.444,569.478,0.0
55781.0,STARLINK-5820,PAYLOAD,2024-03-20 15:32:41,14.98570449,0.0002932,70.0019,237.601,292.5417,67.5432,0.0024987,0.00030036,0.0,0 STARLINK-5820,1 55781U 23028AS  24080.64770114  .00030036  00000-0  24987-2 0  9999,2 55781  70.0019 237.6010 0002932 292.5417  67.5432 14.98570449 58821,6949.449,96.092,573.352,569.277,0.0
